CCSDS_OMM_VERS = 2.0
CREATION_DATE  = 
ORIGINATOR     = 

OBJECT_NAME    = H-2A R/B
OBJECT_ID      = 2006-002B
CENTER_NAME    = EARTH
REF_FRAME      = TEME
TIME_SYSTEM    = UTC
MEAN_ELEMENT_THEORY = SGP/SGP4

EPOCH          = 2026-03-25T15:24:29.883456
MEAN_MOTION    = 15.16761177
ECCENTRICITY   = .00523523
INCLINATION    = 98.2440
RA_OF_ASC_NODE = 233.0443
ARG_OF_PERICENTER = 186.4070
MEAN_ANOMALY   = 173.6498

EPHEMERIS_TYPE = 0
CLASSIFICATION_TYPE = U
NORAD_CAT_ID   = 28932
ELEMENT_SET_NO = 999
REV_AT_EPOCH   = 9685
BSTAR          = .52588874E-3
MEAN_MOTION_DOT = .10616E-3
MEAN_MOTION_DDOT = 0

CCSDS_OMM_VERS = 2.0
CREATION_DATE  = 
ORIGINATOR     = 

OBJECT_NAME    = RESURS-DK 1
OBJECT_ID      = 2006-021A
CENTER_NAME    = EARTH
REF_FRAME      = TEME
TIME_SYSTEM    = UTC
MEAN_ELEMENT_THEORY = SGP/SGP4

EPOCH          = 2026-03-25T14:28:19.377984
MEAN_MOTION    = 15.12845936
ECCENTRICITY   = .00008537
INCLINATION    = 69.9337
RA_OF_ASC_NODE = 195.8585
ARG_OF_PERICENTER = 73.5876
MEAN_ANOMALY   = 286.5384

EPHEMERIS_TYPE = 0
CLASSIFICATION_TYPE = U
NORAD_CAT_ID   = 29228
ELEMENT_SET_NO = 999
REV_AT_EPOCH   = 8993
BSTAR          = .13809078E-3
MEAN_MOTION_DOT = .2326E-4
MEAN_MOTION_DDOT = 0

CCSDS_OMM_VERS = 2.0
CREATION_DATE  = 
ORIGINATOR     = 

OBJECT_NAME    = CZ-4B R/B
OBJECT_ID      = 2006-046C
CENTER_NAME    = EARTH
REF_FRAME      = TEME
TIME_SYSTEM    = UTC
MEAN_ELEMENT_THEORY = SGP/SGP4

EPOCH          = 2026-03-25T13:43:48.340128
MEAN_MOTION    = 15.17061158
ECCENTRICITY   = .00324174
INCLINATION    = 97.5563
RA_OF_ASC_NODE = 129.4376
ARG_OF_PERICENTER = 209.9750
MEAN_ANOMALY   = 149.9628

EPHEMERIS_TYPE = 0
CLASSIFICATION_TYPE = U
NORAD_CAT_ID   = 29507
ELEMENT_SET_NO = 999
REV_AT_EPOCH   = 6245
BSTAR          = .20546528E-3
MEAN_MOTION_DOT = .405E-4
MEAN_MOTION_DDOT = 0

CCSDS_OMM_VERS = 2.0
CREATION_DATE  = 
ORIGINATOR     = 

OBJECT_NAME    = CZ-2C R/B
OBJECT_ID      = 2007-010B
CENTER_NAME    = EARTH
REF_FRAME      = TEME
TIME_SYSTEM    = UTC
MEAN_ELEMENT_THEORY = SGP/SGP4

EPOCH          = 2026-03-25T13:51:09.711072
MEAN_MOTION    = 14.20251720
ECCENTRICITY   = .00579357
INCLINATION    = 98.3996
RA_OF_ASC_NODE = 197.0610
ARG_OF_PERICENTER = 247.5032
MEAN_ANOMALY   = 112.0005

EPHEMERIS_TYPE = 0
CLASSIFICATION_TYPE = U
NORAD_CAT_ID   = 31114
ELEMENT_SET_NO = 999
REV_AT_EPOCH   = 98197
BSTAR          = .79625177E-4
MEAN_MOTION_DOT = .132E-5
MEAN_MOTION_DDOT = 0

CCSDS_OMM_VERS = 2.0
CREATION_DATE  = 
ORIGINATOR     = 

OBJECT_NAME    = COSMO-SKYMED 1
OBJECT_ID      = 2007-023A
CENTER_NAME    = EARTH
REF_FRAME      = TEME
TIME_SYSTEM    = UTC
MEAN_ELEMENT_THEORY = SGP/SGP4

EPOCH          = 2026-03-25T13:50:56.784768
MEAN_MOTION    = 14.96648468
ECCENTRICITY   = .00010002
INCLINATION    = 97.8879
RA_OF_ASC_NODE = 275.7387
ARG_OF_PERICENTER = 90.8707
MEAN_ANOMALY   = 269.2628

EPHEMERIS_TYPE = 0
CLASSIFICATION_TYPE = U
NORAD_CAT_ID   = 31598
ELEMENT_SET_NO = 999
REV_AT_EPOCH   = 1728
BSTAR          = .24919329E-3
MEAN_MOTION_DOT = .2782E-4
MEAN_MOTION_DDOT = 0

CCSDS_OMM_VERS = 2.0
CREATION_DATE  = 
ORIGINATOR     = 

OBJECT_NAME    = COSMOS 2428
OBJECT_ID      = 2007-029A
CENTER_NAME    = EARTH
REF_FRAME      = TEME
TIME_SYSTEM    = UTC
MEAN_ELEMENT_THEORY = SGP/SGP4

EPOCH          = 2026-03-25T12:49:31.141344
MEAN_MOTION    = 14.12948118
ECCENTRICITY   = .00096559
INCLINATION    = 70.9440
RA_OF_ASC_NODE = 170.0889
ARG_OF_PERICENTER = 260.8350
MEAN_ANOMALY   = 99.1679

EPHEMERIS_TYPE = 0
CLASSIFICATION_TYPE = U
NORAD_CAT_ID   = 31792
ELEMENT_SET_NO = 999
REV_AT_EPOCH   = 96633
BSTAR          = .13347134E-4
MEAN_MOTION_DOT = -.23E-6
MEAN_MOTION_DDOT = 0

CCSDS_OMM_VERS = 2.0
CREATION_DATE  = 
ORIGINATOR     = 

OBJECT_NAME    = SL-16 R/B
OBJECT_ID      = 2007-029B
CENTER_NAME    = EARTH
REF_FRAME      = TEME
TIME_SYSTEM    = UTC
MEAN_ELEMENT_THEORY = SGP/SGP4

EPOCH          = 2026-03-25T15:11:39.442560
MEAN_MOTION    = 14.14842576
ECCENTRICITY   = .00025768
INCLINATION    = 70.9752
RA_OF_ASC_NODE = 138.8721
ARG_OF_PERICENTER = 277.3173
MEAN_ANOMALY   = 247.6505

EPHEMERIS_TYPE = 0
CLASSIFICATION_TYPE = U
NORAD_CAT_ID   = 31793
ELEMENT_SET_NO = 999
REV_AT_EPOCH   = 96762
BSTAR          = .10405065E-3
MEAN_MOTION_DOT = .153E-5
MEAN_MOTION_DDOT = 0

CCSDS_OMM_VERS = 2.0
CREATION_DATE  = 
ORIGINATOR     = 

OBJECT_NAME    = KORONAS-FOTON
OBJECT_ID      = 2009-003A
CENTER_NAME    = EARTH
REF_FRAME      = TEME
TIME_SYSTEM    = UTC
MEAN_ELEMENT_THEORY = SGP/SGP4

EPOCH          = 2026-03-25T13:59:00.631680
MEAN_MOTION    = 15.43733080
ECCENTRICITY   = .00118063
INCLINATION    = 82.4279
RA_OF_ASC_NODE = 259.3467
ARG_OF_PERICENTER = 98.2677
MEAN_ANOMALY   = 261.9910

EPHEMERIS_TYPE = 0
CLASSIFICATION_TYPE = U
NORAD_CAT_ID   = 33504
ELEMENT_SET_NO = 999
REV_AT_EPOCH   = 94819
BSTAR          = .30026428E-3
MEAN_MOTION_DOT = .13636E-3
MEAN_MOTION_DDOT = 0

CCSDS_OMM_VERS = 2.0
CREATION_DATE  = 
ORIGINATOR     = 

OBJECT_NAME    = CZ-2C R/B
OBJECT_ID      = 2011-030B
CENTER_NAME    = EARTH
REF_FRAME      = TEME
TIME_SYSTEM    = UTC
MEAN_ELEMENT_THEORY = SGP/SGP4

EPOCH          = 2026-03-25T15:25:28.436736
MEAN_MOTION    = 14.81276683
ECCENTRICITY   = .00512243
INCLINATION    = 97.8571
RA_OF_ASC_NODE = 41.5898
ARG_OF_PERICENTER = 299.4108
MEAN_ANOMALY   = 233.7214

EPHEMERIS_TYPE = 0
CLASSIFICATION_TYPE = U
NORAD_CAT_ID   = 37731
ELEMENT_SET_NO = 999
REV_AT_EPOCH   = 79245
BSTAR          = .19025465E-3
MEAN_MOTION_DOT = .1462E-4
MEAN_MOTION_DDOT = 0

CCSDS_OMM_VERS = 2.0
CREATION_DATE  = 
ORIGINATOR     = 

OBJECT_NAME    = H-2A R/B
OBJECT_ID      = 2012-025E
CENTER_NAME    = EARTH
REF_FRAME      = TEME
TIME_SYSTEM    = UTC
MEAN_ELEMENT_THEORY = SGP/SGP4

EPOCH          = 2026-03-25T09:18:35.619264
MEAN_MOTION    = 14.95274173
ECCENTRICITY   = .00427169
INCLINATION    = 98.4758
RA_OF_ASC_NODE = 52.6947
ARG_OF_PERICENTER = 261.0793
MEAN_ANOMALY   = 98.5589

EPHEMERIS_TYPE = 0
CLASSIFICATION_TYPE = U
NORAD_CAT_ID   = 38341
ELEMENT_SET_NO = 999
REV_AT_EPOCH   = 75056
BSTAR          = .30131482E-3
MEAN_MOTION_DOT = .3308E-4
MEAN_MOTION_DDOT = 0

CCSDS_OMM_VERS = 2.0
CREATION_DATE  = 
ORIGINATOR     = 

OBJECT_NAME    = SHIJIAN-16 (SJ-16)
OBJECT_ID      = 2013-057A
CENTER_NAME    = EARTH
REF_FRAME      = TEME
TIME_SYSTEM    = UTC
MEAN_ELEMENT_THEORY = SGP/SGP4

EPOCH          = 2026-03-25T15:37:23.223936
MEAN_MOTION    = 14.92409351
ECCENTRICITY   = .00152358
INCLINATION    = 74.9725
RA_OF_ASC_NODE = 154.8738
ARG_OF_PERICENTER = 71.2627
MEAN_ANOMALY   = 289.0213

EPHEMERIS_TYPE = 0
CLASSIFICATION_TYPE = U
NORAD_CAT_ID   = 39358
ELEMENT_SET_NO = 999
REV_AT_EPOCH   = 67388
BSTAR          = .11709593E-3
MEAN_MOTION_DOT = .1173E-4
MEAN_MOTION_DDOT = 0

CCSDS_OMM_VERS = 2.0
CREATION_DATE  = 
ORIGINATOR     = 

OBJECT_NAME    = SL-4 R/B
OBJECT_ID      = 2014-021B
CENTER_NAME    = EARTH
REF_FRAME      = TEME
TIME_SYSTEM    = UTC
MEAN_ELEMENT_THEORY = SGP/SGP4

EPOCH          = 2026-03-25T11:14:23.380224
MEAN_MOTION    = 15.39704104
ECCENTRICITY   = .00960177
INCLINATION    = 51.6054
RA_OF_ASC_NODE = 260.2707
ARG_OF_PERICENTER = 160.4371
MEAN_ANOMALY   = 200.0338

EPHEMERIS_TYPE = 0
CLASSIFICATION_TYPE = U
NORAD_CAT_ID   = 39679
ELEMENT_SET_NO = 999
REV_AT_EPOCH   = 65870
BSTAR          = .34792001E-3
MEAN_MOTION_DOT = .1601E-3
MEAN_MOTION_DDOT = 0

