H-2A R/B                
1 28932U 06002B   26084.64201254  .00010616  00000+0  52589-3 0  9991
2 28932  98.2440 233.0443 0052352 186.4070 173.6498 15.16761177 96853
RESURS-DK 1             
1 29228U 06021A   26084.60300206  .00002326  00000+0  13809-3 0  9995
2 29228  69.9337 195.8585 0000853  73.5876 286.5384 15.12845936 89934
CZ-4B R/B               
1 29507U 06046C   26084.57208727  .00004050  00000+0  20547-3 0  9996
2 29507  97.5563 129.4376 0032417 209.9750 149.9628 15.17061158 62452
CZ-2C R/B               
1 31114U 07010B   26084.57719573  .00000132  00000+0  79625-4 0  9990
2 31114  98.3996 197.0610 0057935 247.5032 112.0005 14.20251720981979
COSMO-SKYMED 1          
1 31598U 07023A   26084.57704612  .00002782  00000+0  24919-3 0  9996
2 31598  97.8879 275.7387 0001000  90.8707 269.2628 14.96648468 17286
COSMOS 2428             
1 31792U 07029A   26084.53438821 -.00000023  00000+0  13347-4 0  9991
2 31792  70.9440 170.0889 0009655 260.8350  99.1679 14.12948118966337
SL-16 R/B               
1 31793U 07029B   26084.63309540  .00000153  00000+0  10405-3 0  9992
2 31793  70.9752 138.8721 0002576 277.3173 247.6505 14.14842576967626
KORONAS-FOTON           
1 33504U 09003A   26084.58264620  .00013636  00000+0  30026-3 0  9992
2 33504  82.4279 259.3467 0011806  98.2677 261.9910 15.43733080948193
CZ-2C R/B               
1 37731U 11030B   26084.64269024  .00001462  00000+0  19025-3 0  9991
2 37731  97.8571  41.5898 0051224 299.4108 233.7214 14.81276683792457
H-2A R/B                
1 38341U 12025E   26084.38791226  .00003308  00000+0  30131-3 0  9991
2 38341  98.4758  52.6947 0042716 261.0793  98.5589 14.95274173750563
SHIJIAN-16 (SJ-16)      
1 39358U 13057A   26084.65096324  .00001173  00000+0  11710-3 0  9993
2 39358  74.9725 154.8738 0015235  71.2627 289.0213 14.92409351673886
SL-4 R/B                
1 39679U 14021B   26084.46832616  .00016010  00000+0  34792-3 0  9993
2 39679  51.6054 260.2707 0096017 160.4371 200.0338 15.39704104658702
